CCSDS_OMM_VERS = 2.0
CREATION_DATE  = 
ORIGINATOR     = 

OBJECT_NAME    = UNKNOWN
OBJECT_ID      = 
CENTER_NAME    = EARTH
REF_FRAME      = TEME
TIME_SYSTEM    = UTC
MEAN_ELEMENT_THEORY = SGP/SGP4

EPOCH          = 2025-12-22T18:58:06.043872
MEAN_MOTION    = 12.23002029
ECCENTRICITY   = .01291541
INCLINATION    = 73.9980
RA_OF_ASC_NODE = 32.2932
ARG_OF_PERICENTER = 21.7270
MEAN_ANOMALY   = 338.9176

EPHEMERIS_TYPE = 0
CLASSIFICATION_TYPE = U
NORAD_CAT_ID   = 270059
ELEMENT_SET_NO = 999
REV_AT_EPOCH   = 27121
BSTAR          = .66811838E-3
MEAN_MOTION_DOT = .59E-6
MEAN_MOTION_DDOT = 0

CCSDS_OMM_VERS = 2.0
CREATION_DATE  = 
ORIGINATOR     = 

OBJECT_NAME    = UNKNOWN
OBJECT_ID      = 
CENTER_NAME    = EARTH
REF_FRAME      = TEME
TIME_SYSTEM    = UTC
MEAN_ELEMENT_THEORY = SGP/SGP4

EPOCH          = 2026-01-08T13:15:31.235040
MEAN_MOTION    = 13.50078339
ECCENTRICITY   = .0529961
INCLINATION    = 30.1028
RA_OF_ASC_NODE = 326.4314
ARG_OF_PERICENTER = 329.8472
MEAN_ANOMALY   = 27.2577

EPHEMERIS_TYPE = 0
CLASSIFICATION_TYPE = U
NORAD_CAT_ID   = 270060
ELEMENT_SET_NO = 999
REV_AT_EPOCH   = 29965
BSTAR          = .62230032E-2
MEAN_MOTION_DOT = .9732E-4
MEAN_MOTION_DDOT = 0

CCSDS_OMM_VERS = 2.0
CREATION_DATE  = 
ORIGINATOR     = 

OBJECT_NAME    = UNKNOWN
OBJECT_ID      = 
CENTER_NAME    = EARTH
REF_FRAME      = TEME
TIME_SYSTEM    = UTC
MEAN_ELEMENT_THEORY = SGP/SGP4

EPOCH          = 2026-01-06T08:23:06.879552
MEAN_MOTION    = 12.22071988
ECCENTRICITY   = .04996041
INCLINATION    = 82.0669
RA_OF_ASC_NODE = 52.5223
ARG_OF_PERICENTER = 67.8758
MEAN_ANOMALY   = 297.4556

EPHEMERIS_TYPE = 0
CLASSIFICATION_TYPE = U
NORAD_CAT_ID   = 270061
ELEMENT_SET_NO = 999
REV_AT_EPOCH   = 27197
BSTAR          = .12252114E-2
MEAN_MOTION_DOT = .206E-5
MEAN_MOTION_DDOT = 0

CCSDS_OMM_VERS = 2.0
CREATION_DATE  = 
ORIGINATOR     = 

OBJECT_NAME    = UNKNOWN
OBJECT_ID      = 
CENTER_NAME    = EARTH
REF_FRAME      = TEME
TIME_SYSTEM    = UTC
MEAN_ELEMENT_THEORY = SGP/SGP4

EPOCH          = 2026-01-07T03:26:13.134912
MEAN_MOTION    = 14.24232120
ECCENTRICITY   = .00358752
INCLINATION    = 98.8460
RA_OF_ASC_NODE = 319.6210
ARG_OF_PERICENTER = 350.4964
MEAN_ANOMALY   = 9.5532

EPHEMERIS_TYPE = 0
CLASSIFICATION_TYPE = U
NORAD_CAT_ID   = 270063
ELEMENT_SET_NO = 999
REV_AT_EPOCH   = 31766
BSTAR          = .19765981E-3
MEAN_MOTION_DOT = .413E-5
MEAN_MOTION_DDOT = 0

CCSDS_OMM_VERS = 2.0
CREATION_DATE  = 
ORIGINATOR     = 

OBJECT_NAME    = UNKNOWN
OBJECT_ID      = 
CENTER_NAME    = EARTH
REF_FRAME      = TEME
TIME_SYSTEM    = UTC
MEAN_ELEMENT_THEORY = SGP/SGP4

EPOCH          = 2026-01-09T09:06:52.807104
MEAN_MOTION    = 14.47512902
ECCENTRICITY   = .00114423
INCLINATION    = 97.9871
RA_OF_ASC_NODE = 239.3330
ARG_OF_PERICENTER = 19.7171
MEAN_ANOMALY   = 340.4463

EPHEMERIS_TYPE = 0
CLASSIFICATION_TYPE = U
NORAD_CAT_ID   = 270064
ELEMENT_SET_NO = 999
REV_AT_EPOCH   = 32249
BSTAR          = .17410356E-3
MEAN_MOTION_DOT = .6E-5
MEAN_MOTION_DDOT = 0

CCSDS_OMM_VERS = 2.0
CREATION_DATE  = 
ORIGINATOR     = 

OBJECT_NAME    = UNKNOWN
OBJECT_ID      = 
CENTER_NAME    = EARTH
REF_FRAME      = TEME
TIME_SYSTEM    = UTC
MEAN_ELEMENT_THEORY = SGP/SGP4

EPOCH          = 2026-01-08T17:51:11.632032
MEAN_MOTION    = 12.22969075
ECCENTRICITY   = .01320751
INCLINATION    = 74.0018
RA_OF_ASC_NODE = 12.2383
ARG_OF_PERICENTER = 358.2991
MEAN_ANOMALY   = 1.7578

EPHEMERIS_TYPE = 0
CLASSIFICATION_TYPE = U
NORAD_CAT_ID   = 270065
ELEMENT_SET_NO = 999
REV_AT_EPOCH   = 27322
BSTAR          = .52387711E-3
MEAN_MOTION_DOT = .43E-6
MEAN_MOTION_DDOT = 0

CCSDS_OMM_VERS = 2.0
CREATION_DATE  = 
ORIGINATOR     = 

OBJECT_NAME    = UNKNOWN
OBJECT_ID      = 
CENTER_NAME    = EARTH
REF_FRAME      = TEME
TIME_SYSTEM    = UTC
MEAN_ELEMENT_THEORY = SGP/SGP4

EPOCH          = 2026-01-09T16:14:58.027200
MEAN_MOTION    = 14.62864969
ECCENTRICITY   = .00101735
INCLINATION    = 32.2206
RA_OF_ASC_NODE = 144.7688
ARG_OF_PERICENTER = 282.2809
MEAN_ANOMALY   = 77.6699

EPHEMERIS_TYPE = 0
CLASSIFICATION_TYPE = U
NORAD_CAT_ID   = 270066
ELEMENT_SET_NO = 999
REV_AT_EPOCH   = 32728
BSTAR          = .11663354E-3
MEAN_MOTION_DOT = .642E-5
MEAN_MOTION_DDOT = 0

CCSDS_OMM_VERS = 2.0
CREATION_DATE  = 
ORIGINATOR     = 

OBJECT_NAME    = UNKNOWN
OBJECT_ID      = 
CENTER_NAME    = EARTH
REF_FRAME      = TEME
TIME_SYSTEM    = UTC
MEAN_ELEMENT_THEORY = SGP/SGP4

EPOCH          = 2026-01-06T06:44:04.393824
MEAN_MOTION    = 12.96470235
ECCENTRICITY   = .00299468
INCLINATION    = 90.2462
RA_OF_ASC_NODE = 10.1437
ARG_OF_PERICENTER = 183.5637
MEAN_ANOMALY   = 176.5274

EPHEMERIS_TYPE = 0
CLASSIFICATION_TYPE = U
NORAD_CAT_ID   = 270067
ELEMENT_SET_NO = 999
REV_AT_EPOCH   = 28921
BSTAR          = .71919073E-3
MEAN_MOTION_DOT = .214E-5
MEAN_MOTION_DDOT = 0

CCSDS_OMM_VERS = 2.0
CREATION_DATE  = 
ORIGINATOR     = 

OBJECT_NAME    = UNKNOWN
OBJECT_ID      = 
CENTER_NAME    = EARTH
REF_FRAME      = TEME
TIME_SYSTEM    = UTC
MEAN_ELEMENT_THEORY = SGP/SGP4

EPOCH          = 2026-01-07T14:14:39.776352
MEAN_MOTION    = 12.67999983
ECCENTRICITY   = .07698108
INCLINATION    = 73.1560
RA_OF_ASC_NODE = 120.7309
ARG_OF_PERICENTER = 109.3209
MEAN_ANOMALY   = 259.2683

EPHEMERIS_TYPE = 0
CLASSIFICATION_TYPE = U
NORAD_CAT_ID   = 270068
ELEMENT_SET_NO = 999
REV_AT_EPOCH   = 28200
BSTAR          = .47053751E-3
MEAN_MOTION_DOT = .283E-5
MEAN_MOTION_DDOT = 0

CCSDS_OMM_VERS = 2.0
CREATION_DATE  = 
ORIGINATOR     = 

OBJECT_NAME    = UNKNOWN
OBJECT_ID      = 
CENTER_NAME    = EARTH
REF_FRAME      = TEME
TIME_SYSTEM    = UTC
MEAN_ELEMENT_THEORY = SGP/SGP4

EPOCH          = 2026-01-09T05:39:21.898368
MEAN_MOTION    = 14.11862882
ECCENTRICITY   = .00641065
INCLINATION    = 46.9542
RA_OF_ASC_NODE = 194.7648
ARG_OF_PERICENTER = 94.3933
MEAN_ANOMALY   = 266.4261

EPHEMERIS_TYPE = 0
CLASSIFICATION_TYPE = U
NORAD_CAT_ID   = 270069
ELEMENT_SET_NO = 999
REV_AT_EPOCH   = 31201
BSTAR          = .52111917E-2
MEAN_MOTION_DOT = .9636E-4
MEAN_MOTION_DDOT = 0

CCSDS_OMM_VERS = 2.0
CREATION_DATE  = 
ORIGINATOR     = 

OBJECT_NAME    = UNKNOWN
OBJECT_ID      = 
CENTER_NAME    = EARTH
REF_FRAME      = TEME
TIME_SYSTEM    = UTC
MEAN_ELEMENT_THEORY = SGP/SGP4

EPOCH          = 2026-01-08T17:20:36.353472
MEAN_MOTION    = 13.50188443
ECCENTRICITY   = .07216851
INCLINATION    = 62.8012
RA_OF_ASC_NODE = 12.6701
ARG_OF_PERICENTER = 349.7033
MEAN_ANOMALY   = 8.9847

EPHEMERIS_TYPE = 0
CLASSIFICATION_TYPE = U
NORAD_CAT_ID   = 270070
ELEMENT_SET_NO = 999
REV_AT_EPOCH   = 30090
BSTAR          = .85925417E-3
MEAN_MOTION_DOT = .283E-4
MEAN_MOTION_DDOT = 0

CCSDS_OMM_VERS = 2.0
CREATION_DATE  = 
ORIGINATOR     = 

OBJECT_NAME    = UNKNOWN
OBJECT_ID      = 
CENTER_NAME    = EARTH
REF_FRAME      = TEME
TIME_SYSTEM    = UTC
MEAN_ELEMENT_THEORY = SGP/SGP4

EPOCH          = 2025-12-20T21:34:06.913632
MEAN_MOTION    = 11.27809924
ECCENTRICITY   = .01476511
INCLINATION    = 64.7966
RA_OF_ASC_NODE = 213.9083
ARG_OF_PERICENTER = 62.8664
MEAN_ANOMALY   = 298.7231

EPHEMERIS_TYPE = 0
CLASSIFICATION_TYPE = U
NORAD_CAT_ID   = 270071
ELEMENT_SET_NO = 999
REV_AT_EPOCH   = 24997
BSTAR          = .71513351E-3
MEAN_MOTION_DOT = -.17E-6
MEAN_MOTION_DDOT = 0

CCSDS_OMM_VERS = 2.0
CREATION_DATE  = 
ORIGINATOR     = 

OBJECT_NAME    = UNKNOWN
OBJECT_ID      = 
CENTER_NAME    = EARTH
REF_FRAME      = TEME
TIME_SYSTEM    = UTC
MEAN_ELEMENT_THEORY = SGP/SGP4

EPOCH          = 2026-01-03T06:10:06.978144
MEAN_MOTION    = 11.27763595
ECCENTRICITY   = .01512602
INCLINATION    = 64.8101
RA_OF_ASC_NODE = 201.7071
ARG_OF_PERICENTER = 41.8675
MEAN_ANOMALY   = 319.3702

EPHEMERIS_TYPE = 0
CLASSIFICATION_TYPE = U
NORAD_CAT_ID   = 270072
ELEMENT_SET_NO = 999
REV_AT_EPOCH   = 25140
BSTAR          = .73167607E-3
MEAN_MOTION_DOT = -.17E-6
MEAN_MOTION_DDOT = 0

CCSDS_OMM_VERS = 2.0
CREATION_DATE  = 
ORIGINATOR     = 

OBJECT_NAME    = UNKNOWN
OBJECT_ID      = 
CENTER_NAME    = EARTH
REF_FRAME      = TEME
TIME_SYSTEM    = UTC
MEAN_ELEMENT_THEORY = SGP/SGP4

EPOCH          = 2026-01-07T09:39:52.254432
MEAN_MOTION    = 13.23076272
ECCENTRICITY   = .0153612
INCLINATION    = 100.3441
RA_OF_ASC_NODE = 70.4341
ARG_OF_PERICENTER = 88.3351
MEAN_ANOMALY   = 273.5354

EPHEMERIS_TYPE = 0
CLASSIFICATION_TYPE = U
NORAD_CAT_ID   = 270073
ELEMENT_SET_NO = 999
REV_AT_EPOCH   = 29505
BSTAR          = .12078382E-2
MEAN_MOTION_DOT = .498E-5
MEAN_MOTION_DDOT = 0

CCSDS_OMM_VERS = 2.0
CREATION_DATE  = 
ORIGINATOR     = 

OBJECT_NAME    = UNKNOWN
OBJECT_ID      = 
CENTER_NAME    = EARTH
REF_FRAME      = TEME
TIME_SYSTEM    = UTC
MEAN_ELEMENT_THEORY = SGP/SGP4

EPOCH          = 2025-12-19T15:50:42.381600
MEAN_MOTION    = 12.86035070
ECCENTRICITY   = .04676097
INCLINATION    = 63.2981
RA_OF_ASC_NODE = 134.7834
ARG_OF_PERICENTER = 15.4840
MEAN_ANOMALY   = 345.9919

EPHEMERIS_TYPE = 0
CLASSIFICATION_TYPE = U
NORAD_CAT_ID   = 270074
ELEMENT_SET_NO = 999
REV_AT_EPOCH   = 28457
BSTAR          = .67703307E-3
MEAN_MOTION_DOT = .192E-5
MEAN_MOTION_DDOT = 0

CCSDS_OMM_VERS = 2.0
CREATION_DATE  = 
ORIGINATOR     = 

OBJECT_NAME    = UNKNOWN
OBJECT_ID      = 
CENTER_NAME    = EARTH
REF_FRAME      = TEME
TIME_SYSTEM    = UTC
MEAN_ELEMENT_THEORY = SGP/SGP4

EPOCH          = 2026-01-09T04:52:16.453344
MEAN_MOTION    = 14.32243061
ECCENTRICITY   = .01050408
INCLINATION    = 99.2612
RA_OF_ASC_NODE = 341.8313
ARG_OF_PERICENTER = 46.8132
MEAN_ANOMALY   = 314.1767

EPHEMERIS_TYPE = 0
CLASSIFICATION_TYPE = U
NORAD_CAT_ID   = 270075
ELEMENT_SET_NO = 999
REV_AT_EPOCH   = 31214
BSTAR          = .58119891E-2
MEAN_MOTION_DOT = .16646E-3
MEAN_MOTION_DDOT = 0

